OBJECT_NAME,OBJECT_ID,EPOCH,MEAN_MOTION,ECCENTRICITY,INCLINATION,RA_OF_ASC_NODE,ARG_OF_PERICENTER,MEAN_ANOMALY,EPHEMERIS_TYPE,CLASSIFICATION_TYPE,NORAD_CAT_ID,ELEMENT_SET_NO,REV_AT_EPOCH,BSTAR,MEAN_MOTION_DOT,MEAN_MOTION_DDOT
STARLINK-43,2019-029Y,2021-02-06T12:50:32.284032,15.37709714,.000029,53.0014,139.5542,201.0501,159.0489,0,U,44257,999,9484,.31398E-3,.11427E-3,0
STARLINK-55,2019-029AK,2021-02-06T12:18:17.564256,15.81384234,.0006573,52.9942,94.3449,27.5956,332.5413,0,U,44268,999,9545,.87377E-3,.17983E-2,0
STARLINK-64,2019-029AS,2021-02-06T11:49:27.821568,15.42296280,.0001574,52.9910,157.0390,30.9742,329.1355,0,U,44275,999,9473,.29137E-3,.12347E-3,0
STARLINK-68,2019-029AW,2021-02-06T13:36:42.794208,15.61908142,.0001004,52.9974,156.7739,143.9876,216.1204,0,U,44279,999,9474,.45095E-3,.39621E-3,0
STARLINK-70,2019-029AY,2021-02-06T04:58:36.644448,15.44571356,.0001418,52.9984,182.5298,147.6857,212.4235,0,U,44281,999,2620,.24756E-3,.11281E-3,0
STARLINK-75,2019-029BD,2021-02-06T09:19:57.170496,15.80006315,.0004946,53.0037,85.6094,323.4229,36.6453,0,U,44286,999,9571,.74379E-3,.142856E-2,0
STARLINK-76,2019-029BE,2021-02-06T13:08:48.051168,15.46203187,.0002175,52.9959,170.9687,127.7647,232.3556,0,U,44287,999,9454,.2451E-3,.11823E-3,0
STARLINK-48,2019-029BG,2021-02-06T09:54:00.864864,15.20061086,.0001468,52.9988,189.6949,109.1522,250.9632,0,U,44289,999,9423,.4682E-2,.103439E-2,0
COSMOS 2534 [GLONASS-M],2019-030A,2021-02-05T11:47:38.685408,2.13102001,.0011936,64.5501,259.0149,298.6474,241.3004,0,U,44299,999,1321,0,.74E-6,0
YAMAL 601,2019-031A,2021-02-06T08:01:42.816576,1.00273368,.0001773,0.0118,126.5103,203.6259,335.9531,0,U,44307,999,632,0,.113E-5,0
2019-032A,2019-032A,2021-02-06T12:52:20.755776,14.99139482,.0010715,44.9866,340.7906,111.0919,249.1097,0,U,44310,999,9188,.3155E-4,.163E-5,0
2019-032B,2019-032B,2021-02-06T12:26:57.301728,15.00695883,.0013096,44.9796,332.9935,101.8416,258.3923,0,U,44311,999,9197,.35773E-4,.23E-5,0
2019-032C,2019-032C,2021-02-06T11:54:53.229024,15.00928578,.0012582,44.9888,332.4923,100.5357,259.6932,0,U,44312,999,9198,.37486E-4,.254E-5,0
2019-032D,2019-032D,2021-02-06T04:13:29.220096,15.00946984,.0013056,45.0000,334.9976,96.4200,263.8188,0,U,44313,999,9193,.52672E-4,.451E-5,0
2019-032E,2019-032E,2021-02-06T11:54:32.747040,15.00930560,.0013737,44.9884,332.4772,99.3094,260.9349,0,U,44314,999,9198,.38954E-4,.273E-5,0
2019-032F,2019-032F,2021-02-06T05:14:26.550240,15.01479426,.0015632,44.9855,331.1975,106.3430,253.9163,0,U,44315,999,9196,.45544E-4,.366E-5,0
2019-032G,2019-032G,2021-02-06T12:34:27.369696,14.99148609,.0015582,44.9870,340.7285,97.9191,262.3474,0,U,44316,999,9186,.29347E-4,.135E-5,0
RCM-1,2019-033A,2021-02-06T12:44:27.250944,14.92593174,.0001579,97.7591,46.9249,83.6202,276.5183,0,U,44322,999,9021,.33823E-4,.292E-5,0
RCM-3,2019-033B,2021-02-06T13:17:01.474656,14.92584108,.0001521,97.7594,47.0421,85.9704,274.1693,0,U,44323,999,9023,-.68319E-4,-.758E-5,0
RCM-2,2019-033C,2021-02-06T13:49:01.516800,14.92585582,.0001606,97.7589,47.0180,90.2402,269.9044,0,U,44324,999,9023,-.21653E-4,-.278E-5,0
RAAVANA-1,1998-067QE,2021-02-06T13:07:16.403232,15.66332032,.0005891,51.6353,234.8650,162.2298,197.8904,0,U,44329,999,9357,.18279E-3,.18809E-3,0
UGUISU,1998-067QF,2021-02-06T13:53:10.768704,15.66112810,.0005835,51.6335,235.0178,161.4009,198.7201,0,U,44330,999,9355,.16015E-3,.16256E-3,0
NEPALISAT-1,1998-067QG,2021-02-06T12:55:01.116768,15.66308794,.0005883,51.6329,234.7486,164.2576,195.8604,0,U,44331,999,9356,.17876E-3,.18364E-3,0
SPOOQY-1,1998-067QH,2021-02-06T13:39:27.804384,15.65955824,.0005139,51.6338,234.9771,165.4713,194.6432,0,U,44332,999,9352,.16057E-3,.16193E-3,0
AT&T T-16,2019-034A,2021-02-06T13:24:55.407168,1.00274192,.0001565,0.0128,307.1680,242.4910,47.5983,0,U,44333,999,602,0,-.122E-5,0
EUTELSAT 7C,2019-034B,2021-02-06T07:03:42.861312,1.00270801,.0003003,0.0150,175.9078,135.4450,298.1754,0,U,44334,999,648,0,.41E-6,0
BEIDOU-3 IGSO-2,2019-035A,2021-02-06T07:26:42.463680,1.00270965,.0016956,55.0852,176.1779,185.0518,354.6997,0,U,44337,999,607,0,-.11E-5,0
PROX-1,2019-036A,2021-02-06T10:31:43.495968,14.53356533,.0010532,24.0007,79.2112,184.4948,175.5450,0,U,44339,999,8613,.16438E-3,.908E-5,0
NPSAT1,2019-036B,2021-02-06T10:29:30.687072,14.52828151,.0010848,24.0014,80.2019,177.1540,182.9014,0,U,44340,999,8618,.43979E-4,.395E-5,0
OTB,2019-036C,2021-02-06T11:16:37.250112,14.52887110,.0011779,23.9985,79.3883,181.9859,178.0587,0,U,44341,999,8620,.40003E-5,.228E-5,0
FORMOSAT 7-3,2019-036E,2021-02-06T03:18:03.056832,15.07610641,.0010435,24.0008,312.7581,200.8004,159.2075,0,U,44343,999,8737,.33506E-4,.866E-5,0
