STARLINK-43             
1 44257U 19029Y   21037.53509588  .00011427  00000-0  31398-3 0  9991
2 44257  53.0014 139.5542 0000290 201.0501 159.0489 15.37709714 94841
STARLINK-55             
1 44268U 19029AK  21037.51270329  .00179830  00000-0  87377-3 0  9990
2 44268  52.9942  94.3449 0006573  27.5956 332.5413 15.81384234 95458
STARLINK-64             
1 44275U 19029AS  21037.49268312  .00012347  00000-0  29137-3 0  9993
2 44275  52.9910 157.0390 0001574  30.9742 329.1355 15.42296280 94737
STARLINK-68             
1 44279U 19029AW  21037.56716197  .00039621  00000-0  45095-3 0  9999
2 44279  52.9974 156.7739 0001004 143.9876 216.1204 15.61908142 94742
STARLINK-70             
1 44281U 19029AY  21037.20736857  .00011281  00000-0  24756-3 0  9991
2 44281  52.9984 182.5298 0001418 147.6857 212.4235 15.44571356 26205
STARLINK-75             
1 44286U 19029BD  21037.38885614  .00142856  00000-0  74379-3 0  9990
2 44286  53.0037  85.6094 0004946 323.4229  36.6453 15.80006315 95712
STARLINK-76             
1 44287U 19029BE  21037.54777837  .00011823  00000-0  24510-3 0  9997
2 44287  52.9959 170.9687 0002175 127.7647 232.3556 15.46203187 94548
STARLINK-48             
1 44289U 19029BG  21037.41251001  .00103439  00000-0  46820-2 0  9997
2 44289  52.9988 189.6949 0001468 109.1522 250.9632 15.20061086 94239
COSMOS 2534 [GLONASS-M] 
1 44299U 19030A   21036.49141997  .00000074  00000-0  00000-0 0  9998
2 44299  64.5501 259.0149 0011936 298.6474 241.3004  2.13102001 13212
YAMAL 601               
1 44307U 19031A   21037.33452334  .00000113  00000-0  00000-0 0  9997
2 44307   0.0118 126.5103 0001773 203.6259 335.9531  1.00273368  6323
2019-032A               
1 44310U 19032A   21037.53635134  .00000163  00000-0  31550-4 0  9998
2 44310  44.9866 340.7906 0010715 111.0919 249.1097 14.99139482 91884
2019-032B               
1 44311U 19032B   21037.51871877  .00000230  00000-0  35773-4 0  9999
2 44311  44.9796 332.9935 0013096 101.8416 258.3923 15.00695883 91971
2019-032C               
1 44312U 19032C   21037.49644941  .00000254  00000-0  37486-4 0  9996
2 44312  44.9888 332.4923 0012582 100.5357 259.6932 15.00928578 91980
2019-032D               
1 44313U 19032D   21037.17603264  .00000451  00000-0  52672-4 0  9998
2 44313  45.0000 334.9976 0013056  96.4200 263.8188 15.00946984 91937
2019-032E               
1 44314U 19032E   21037.49621235  .00000273  00000-0  38954-4 0  9991
2 44314  44.9884 332.4772 0013737  99.3094 260.9349 15.00930560 91987
2019-032F               
1 44315U 19032F   21037.21836285  .00000366  00000-0  45544-4 0  9991
2 44315  44.9855 331.1975 0015632 106.3430 253.9163 15.01479426 91960
2019-032G               
1 44316U 19032G   21037.52392789  .00000135  00000-0  29347-4 0  9999
2 44316  44.9870 340.7285 0015582  97.9191 262.3474 14.99148609 91861
RCM-1                   
1 44322U 19033A   21037.53087096  .00000292  00000-0  33823-4 0  9998
2 44322  97.7591  46.9249 0001579  83.6202 276.5183 14.92593174 90211
RCM-3                   
1 44323U 19033B   21037.55348929 -.00000758  00000-0 -68319-4 0  9993
2 44323  97.7594  47.0421 0001521  85.9704 274.1693 14.92584108 90237
RCM-2                   
1 44324U 19033C   21037.57571200 -.00000278  00000-0 -21653-4 0  9993
2 44324  97.7589  47.0180 0001606  90.2402 269.9044 14.92585582 90231
RAAVANA-1               
1 44329U 98067QE  21037.54671763  .00018809  00000-0  18279-3 0  9990
2 44329  51.6353 234.8650 0005891 162.2298 197.8904 15.66332032 93571
UGUISU                  
1 44330U 98067QF  21037.57859686  .00016256  00000-0  16015-3 0  9997
2 44330  51.6335 235.0178 0005835 161.4009 198.7201 15.66112810 93558
NEPALISAT-1             
1 44331U 98067QG  21037.53820737  .00018364  00000-0  17876-3 0  9997
2 44331  51.6329 234.7486 0005883 164.2576 195.8604 15.66308794 93567
SPOOQY-1                
1 44332U 98067QH  21037.56907181  .00016193  00000-0  16057-3 0  9998
2 44332  51.6338 234.9771 0005139 165.4713 194.6432 15.65955824 93520
AT&T T-16               
1 44333U 19034A   21037.55897462 -.00000122  00000-0  00000-0 0  9999
2 44333   0.0128 307.1680 0001565 242.4910  47.5983  1.00274192  6024
EUTELSAT 7C             
1 44334U 19034B   21037.29424608  .00000041  00000-0  00000-0 0  9998
2 44334   0.0150 175.9078 0003003 135.4450 298.1754  1.00270801  6484
BEIDOU-3 IGSO-2         
1 44337U 19035A   21037.31021370 -.00000110  00000-0  00000-0 0  9992
2 44337  55.0852 176.1779 0016956 185.0518 354.6997  1.00270965  6077
PROX-1                  
1 44339U 19036A   21037.43869787  .00000908  00000-0  16438-3 0  9999
2 44339  24.0007  79.2112 0010532 184.4948 175.5450 14.53356533 86132
NPSAT1                  
1 44340U 19036B   21037.43716073  .00000395  00000-0  43979-4 0  9991
2 44340  24.0014  80.2019 0010848 177.1540 182.9014 14.52828151 86189
OTB                     
1 44341U 19036C   21037.46987558  .00000228  00000-0  40003-5 0  9994
2 44341  23.9985  79.3883 0011779 181.9859 178.0587 14.52887110 86207
FORMOSAT 7-3            
1 44343U 19036E   21037.13753538  .00000866  00000-0  33506-4 0  9996
2 44343  24.0008 312.7581 0010435 200.8004 159.2075 15.07610641 87373
